{"type": "FeatureCollection", "features": [{"type": "Feature", "properties": {"norad_id": 24876, "name": "GPS BIIR-2  (PRN 13)", "group": "gnss", "lat": 30.313125645614015, "lon": 129.25442304998074, "alt_km": 19936.125791999148, "timestamp": "2025-12-10T18:57:00.307876+00:00", "meta": {"OBJECT_NAME": "GPS BIIR-2  (PRN 13)", "OBJECT_ID": "1997-035A", "EPOCH": "2025-12-09T17:47:19.154688", "MEAN_MOTION": 2.00563565, "ECCENTRICITY": 0.00967483, "INCLINATION": 55.8939, "RA_OF_ASC_NODE": 105.9862, "ARG_OF_PERICENTER": 57.0132, "MEAN_ANOMALY": 303.8899, "EPHEMERIS_TYPE": 0, "CLASSIFICATION_TYPE": "U", "NORAD_CAT_ID": 24876, "ELEMENT_SET_NO": 999, "REV_AT_EPOCH": 20815, "BSTAR": 0, "MEAN_MOTION_DOT": 2.2e-07, "MEAN_MOTION_DDOT": 0}, "tle": {"line1": "1 24876U 97035A   25343.74119392  .00000022  00000+0  00000+0 0  9996", "line2": "2 24876  55.8939 105.9862 0096748  57.0132 303.8899  2.00563565208159"}}, "geometry": {"type": "Point", "coordinates": [129.25442304998074, 30.313125645614015]}}, {"type": "Feature", "properties": {"norad_id": 26360, "name": "GPS BIIR-4  (PRN 20)", "group": "gnss", "lat": 39.30171011792892, "lon": 172.02364490487287, "alt_km": 20216.05881535493, "timestamp": "2025-12-10T18:57:00.307923+00:00", "meta": {"OBJECT_NAME": "GPS BIIR-4  (PRN 20)", "OBJECT_ID": "2000-025A", "EPOCH": "2025-12-10T02:56:33.389088", "MEAN_MOTION": 2.00567859, "ECCENTRICITY": 0.00388536, "INCLINATION": 55.0436, "RA_OF_ASC_NODE": 26.9437, "ARG_OF_PERICENTER": 241.7395, "MEAN_ANOMALY": 126.4699, "EPHEMERIS_TYPE": 0, "CLASSIFICATION_TYPE": "U", "NORAD_CAT_ID": 26360, "ELEMENT_SET_NO": 999, "REV_AT_EPOCH": 18748, "BSTAR": 0, "MEAN_MOTION_DOT": -9.6e-07, "MEAN_MOTION_DDOT": 0}, "tle": {"line1": "1 26360U 00025A   25344.12260867 -.00000096  00000+0  00000+0 0  9998", "line2": "2 26360  55.0436  26.9437 0038853 241.7395 126.4699  2.00567859187488"}}, "geometry": {"type": "Point", "coordinates": [172.02364490487287, 39.30171011792892]}}, {"type": "Feature", "properties": {"norad_id": 26407, "name": "GPS BIIR-5  (PRN 22)", "group": "gnss", "lat": -24.134822250093848, "lon": -155.70475699072318, "alt_km": 19889.2191505354, "timestamp": "2025-12-10T18:57:00.307941+00:00", "meta": {"OBJECT_NAME": "GPS BIIR-5  (PRN 22)", "OBJECT_ID": "2000-040A", "EPOCH": "2025-12-09T20:17:06.584640", "MEAN_MOTION": 2.00567874, "ECCENTRICITY": 0.01261721, "INCLINATION": 54.8914, "RA_OF_ASC_NODE": 222.6841, "ARG_OF_PERICENTER": 301.7549, "MEAN_ANOMALY": 65.7518, "EPHEMERIS_TYPE": 0, "CLASSIFICATION_TYPE": "U", "NORAD_CAT_ID": 26407, "ELEMENT_SET_NO": 999, "REV_AT_EPOCH": 18615, "BSTAR": 0, "MEAN_MOTION_DOT": 2e-08, "MEAN_MOTION_DDOT": 0}, "tle": {"line1": "1 26407U 00040A   25343.84521510  .00000002  00000+0  00000+0 0  9996", "line2": "2 26407  54.8914 222.6841 0126172 301.7549  65.7518  2.00567874186157"}}, "geometry": {"type": "Point", "coordinates": [-155.70475699072318, -24.134822250093848]}}, {"type": "Feature", "properties": {"norad_id": 27663, "name": "GPS BIIR-8  (PRN 16)", "group": "gnss", "lat": 51.655053096648324, "lon": -20.113878180229037, "alt_km": 19946.07108471516, "timestamp": "2025-12-10T18:57:00.307956+00:00", "meta": {"OBJECT_NAME": "GPS BIIR-8  (PRN 16)", "OBJECT_ID": "2003-005A", "EPOCH": "2025-12-10T07:26:08.155104", "MEAN_MOTION": 2.00571007, "ECCENTRICITY": 0.0147361, "INCLINATION": 54.9239, "RA_OF_ASC_NODE": 222.475, "ARG_OF_PERICENTER": 51.7666, "MEAN_ANOMALY": 67.0717, "EPHEMERIS_TYPE": 0, "CLASSIFICATION_TYPE": "U", "NORAD_CAT_ID": 27663, "ELEMENT_SET_NO": 999, "REV_AT_EPOCH": 16752, "BSTAR": 0, "MEAN_MOTION_DOT": 1e-08, "MEAN_MOTION_DDOT": 0}, "tle": {"line1": "1 27663U 03005A   25344.30981661  .00000001  00000+0  00000+0 0  9993", "line2": "2 27663  54.9239 222.4750 0147361  51.7666  67.0717  2.00571007167524"}}, "geometry": {"type": "Point", "coordinates": [-20.113878180229037, 51.655053096648324]}}, {"type": "Feature", "properties": {"norad_id": 28190, "name": "GPS BIIR-11 (PRN 19)", "group": "gnss", "lat": -54.73113537271295, "lon": -174.82300327808696, "alt_km": 20224.07888563134, "timestamp": "2025-12-10T18:57:00.307970+00:00", "meta": {"OBJECT_NAME": "GPS BIIR-11 (PRN 19)", "OBJECT_ID": "2004-009A", "EPOCH": "2025-12-09T02:41:41.936352", "MEAN_MOTION": 2.00560834, "ECCENTRICITY": 0.01083049, "INCLINATION": 54.989, "RA_OF_ASC_NODE": 283.3651, "ARG_OF_PERICENTER": 167.5856, "MEAN_ANOMALY": 325.415, "EPHEMERIS_TYPE": 0, "CLASSIFICATION_TYPE": "U", "NORAD_CAT_ID": 28190, "ELEMENT_SET_NO": 999, "REV_AT_EPOCH": 15913, "BSTAR": 0, "MEAN_MOTION_DOT": -5.3e-07, "MEAN_MOTION_DDOT": 0}, "tle": {"line1": "1 28190U 04009A   25343.11229093 -.00000053  00000+0  00000+0 0  9994", "line2": "2 28190  54.9890 283.3651 0108304 167.5856 325.4150  2.00560834159136"}}, "geometry": {"type": "Point", "coordinates": [-174.82300327808696, -54.73113537271295]}}, {"type": "Feature", "properties": {"norad_id": 28474, "name": "GPS BIIR-13 (PRN 02)", "group": "gnss", "lat": -28.37928550711964, "lon": -49.552299269495116, "alt_km": 19747.711523188358, "timestamp": "2025-12-10T18:57:00.307984+00:00", "meta": {"OBJECT_NAME": "GPS BIIR-13 (PRN 02)", "OBJECT_ID": "2004-045A", "EPOCH": "2025-12-09T20:12:55.228896", "MEAN_MOTION": 2.00569305, "ECCENTRICITY": 0.01707094, "INCLINATION": 55.2421, "RA_OF_ASC_NODE": 332.5223, "ARG_OF_PERICENTER": 309.1205, "MEAN_ANOMALY": 51.0041, "EPHEMERIS_TYPE": 0, "CLASSIFICATION_TYPE": "U", "NORAD_CAT_ID": 28474, "ELEMENT_SET_NO": 999, "REV_AT_EPOCH": 15463, "BSTAR": 0, "MEAN_MOTION_DOT": -8.4e-07, "MEAN_MOTION_DDOT": 0}, "tle": {"line1": "1 28474U 04045A   25343.84230589 -.00000084  00000+0  00000+0 0  9995", "line2": "2 28474  55.2421 332.5223 0170709 309.1205  51.0041  2.00569305154630"}}, "geometry": {"type": "Point", "coordinates": [-49.552299269495116, -28.37928550711964]}}, {"type": "Feature", "properties": {"norad_id": 28874, "name": "GPS BIIRM-1 (PRN 17)", "group": "gnss", "lat": -53.09895299369109, "lon": -147.80269054023162, "alt_km": 19842.66606073682, "timestamp": "2025-12-10T18:57:00.307997+00:00", "meta": {"OBJECT_NAME": "GPS BIIRM-1 (PRN 17)", "OBJECT_ID": "2005-038A", "EPOCH": "2025-12-09T01:52:55.801632", "MEAN_MOTION": 2.0057855, "ECCENTRICITY": 0.01317498, "INCLINATION": 55.0352, "RA_OF_ASC_NODE": 280.8483, "ARG_OF_PERICENTER": 293.4065, "MEAN_ANOMALY": 193.8993, "EPHEMERIS_TYPE": 0, "CLASSIFICATION_TYPE": "U", "NORAD_CAT_ID": 28874, "ELEMENT_SET_NO": 999, "REV_AT_EPOCH": 14802, "BSTAR": 0, "MEAN_MOTION_DOT": -5e-07, "MEAN_MOTION_DDOT": 0}, "tle": {"line1": "1 28874U 05038A   25343.07842363 -.00000050  00000+0  00000+0 0  9999", "line2": "2 28874  55.0352 280.8483 0131749 293.4065 193.8993  2.00578550148027"}}, "geometry": {"type": "Point", "coordinates": [-147.80269054023162, -53.09895299369109]}}, {"type": "Feature", "properties": {"norad_id": 28899, "name": "INMARSAT 4-F2 (SOUTHPAN/PRN 122)", "group": "gnss", "lat": 4.716396943723009, "lon": 147.53165987623558, "alt_km": 35790.91929951002, "timestamp": "2025-12-10T18:57:00.308012+00:00", "meta": {"OBJECT_NAME": "INMARSAT 4-F2 (SOUTHPAN/PRN 122)", "OBJECT_ID": "2005-044A", "EPOCH": "2025-12-10T06:14:15.186336", "MEAN_MOTION": 1.00270865, "ECCENTRICITY": 0.0003048, "INCLINATION": 4.8496, "RA_OF_ASC_NODE": 43.6839, "ARG_OF_PERICENTER": 217.284, "MEAN_ANOMALY": 55.3386, "EPHEMERIS_TYPE": 0, "CLASSIFICATION_TYPE": "U", "NORAD_CAT_ID": 28899, "ELEMENT_SET_NO": 999, "REV_AT_EPOCH": 7362, "BSTAR": 0, "MEAN_MOTION_DOT": -2.58e-06, "MEAN_MOTION_DDOT": 0}, "tle": {"line1": "1 28899U 05044A   25344.25989799 -.00000258  00000+0  00000+0 0  9999", "line2": "2 28899   4.8496  43.6839 0003048 217.2840  55.3386  1.00270865 73628"}}, "geometry": {"type": "Point", "coordinates": [147.53165987623558, 4.716396943723009]}}, {"type": "Feature", "properties": {"norad_id": 29486, "name": "GPS BIIRM-2 (PRN 31)", "group": "gnss", "lat": -5.831290907636226, "lon": -17.03621469499027, "alt_km": 20384.829621396537, "timestamp": "2025-12-10T18:57:00.308025+00:00", "meta": {"OBJECT_NAME": "GPS BIIRM-2 (PRN 31)", "OBJECT_ID": "2006-042A", "EPOCH": "2025-12-09T13:14:35.270304", "MEAN_MOTION": 2.00554233, "ECCENTRICITY": 0.0107363, "INCLINATION": 54.6937, "RA_OF_ASC_NODE": 158.8672, "ARG_OF_PERICENTER": 51.886, "MEAN_ANOMALY": 320.6455, "EPHEMERIS_TYPE": 0, "CLASSIFICATION_TYPE": "U", "NORAD_CAT_ID": 29486, "ELEMENT_SET_NO": 999, "REV_AT_EPOCH": 14059, "BSTAR": 0, "MEAN_MOTION_DOT": 6.7e-07, "MEAN_MOTION_DDOT": 0}, "tle": {"line1": "1 29486U 06042A   25343.55179711  .00000067  00000+0  00000+0 0  9995", "line2": "2 29486  54.6937 158.8672 0107363  51.8860 320.6455  2.00554233140598"}}, "geometry": {"type": "Point", "coordinates": [-17.03621469499027, -5.831290907636226]}}, {"type": "Feature", "properties": {"norad_id": 29601, "name": "GPS BIIRM-3 (PRN 12)", "group": "gnss", "lat": -47.45909710866958, "lon": 91.28773754640605, "alt_km": 20400.36184238065, "timestamp": "2025-12-10T18:57:00.308038+00:00", "meta": {"OBJECT_NAME": "GPS BIIRM-3 (PRN 12)", "OBJECT_ID": "2006-052A", "EPOCH": "2025-12-09T22:55:07.366368", "MEAN_MOTION": 2.00573319, "ECCENTRICITY": 0.0087752, "INCLINATION": 54.9712, "RA_OF_ASC_NODE": 221.5087, "ARG_OF_PERICENTER": 87.406, "MEAN_ANOMALY": 273.6761, "EPHEMERIS_TYPE": 0, "CLASSIFICATION_TYPE": "U", "NORAD_CAT_ID": 29601, "ELEMENT_SET_NO": 999, "REV_AT_EPOCH": 13961, "BSTAR": 0, "MEAN_MOTION_DOT": 3e-08, "MEAN_MOTION_DDOT": 0}, "tle": {"line1": "1 29601U 06052A   25343.95494637  .00000003  00000+0  00000+0 0  9996", "line2": "2 29601  54.9712 221.5087 0087752  87.4060 273.6761  2.00573319139619"}}, "geometry": {"type": "Point", "coordinates": [91.28773754640605, -47.45909710866958]}}]}